{
  "type": "FeatureCollection",
  "features": [
    {
      "type": "Feature",
      "properties": {
        "norad_id": 32183,
        "name": "FENGYUN 1C DEB",
        "group": "fengyun-1c-debris",
        "lat": -20.069495284761015,
        "lon": 33.854232166769975,
        "alt_km": 870.7447288987378,
        "timestamp": "2025-12-05T04:52:15.577428+00:00",
        "meta_object_name": "FENGYUN 1C DEB",
        "meta_object_id": "1999-025CUD",
        "meta_epoch": "2025-12-02T20:46:03.470880",
        "meta_mean_motion": 14.1004773,
        "meta_eccentricity": 0.00432965,
        "meta_inclination": 98.7142,
        "meta_ra_of_asc_node": 28.3779,
        "meta_arg_of_pericenter": 88.5408,
        "meta_mean_anomaly": 272.0723,
        "meta_ephemeris_type": 0,
        "meta_classification_type": "U",
        "meta_norad_cat_id": 32183,
        "meta_element_set_no": 999,
        "meta_rev_at_epoch": 72625,
        "meta_bstar": 0.00090671194,
        "meta_mean_motion_dot": 1.573e-05,
        "meta_mean_motion_ddot": 0,
        "tle_line1": "1 32183U 99025CUD 25336.86531795  .00001573  00000+0  90671-3 0  9996",
        "tle_line2": "2 32183  98.7142  28.3779 0043296  88.5408 272.0723 14.10047730726255"
      },
      "geometry": {
        "type": "Point",
        "coordinates": [
          33.854232166769975,
          -20.069495284761015
        ]
      }
    },
    {
      "type": "Feature",
      "properties": {
        "norad_id": 32184,
        "name": "FENGYUN 1C DEB",
        "group": "fengyun-1c-debris",
        "lat": 8.41626566202359,
        "lon": -61.11942663787374,
        "alt_km": 486.9568820927516,
        "timestamp": "2025-12-05T04:52:15.577445+00:00",
        "meta_object_name": "FENGYUN 1C DEB",
        "meta_object_id": "1999-025CUE",
        "meta_epoch": "2025-11-29T15:43:46.172928",
        "meta_mean_motion": 15.41247728,
        "meta_eccentricity": 0.00737208,
        "meta_inclination": 98.1191,
        "meta_ra_of_asc_node": 111.5023,
        "meta_arg_of_pericenter": 34.712,
        "meta_mean_anomaly": 325.8902,
        "meta_ephemeris_type": 0,
        "meta_classification_type": "U",
        "meta_norad_cat_id": 32184,
        "meta_element_set_no": 999,
        "meta_rev_at_epoch": 98202,
        "meta_bstar": 0.0018533746,
        "meta_mean_motion_dot": 0.00085629,
        "meta_mean_motion_ddot": 0,
        "tle_line1": "1 32184U 99025CUE 25333.65539552  .00085629  00000+0  18534-2 0  9991",
        "tle_line2": "2 32184  98.1191 111.5023 0073720  34.7120 325.8902 15.41247728982029"
      },
      "geometry": {
        "type": "Point",
        "coordinates": [
          -61.11942663787374,
          8.41626566202359
        ]
      }
    },
    {
      "type": "Feature",
      "properties": {
        "norad_id": 32185,
        "name": "FENGYUN 1C DEB",
        "group": "fengyun-1c-debris",
        "lat": 41.67089002858148,
        "lon": 176.3187274590541,
        "alt_km": 441.82220049963144,
        "timestamp": "2025-12-05T04:52:15.577462+00:00",
        "meta_object_name": "FENGYUN 1C DEB",
        "meta_object_id": "1999-025CUF",
        "meta_epoch": "2025-12-04T07:54:35.710272",
        "meta_mean_motion": 15.02297817,
        "meta_eccentricity": 0.0164942,
        "meta_inclination": 98.9026,
        "meta_ra_of_asc_node": 183.3363,
        "meta_arg_of_pericenter": 42.3617,
        "meta_mean_anomaly": 319.0203,
        "meta_ephemeris_type": 0,
        "meta_classification_type": "U",
        "meta_norad_cat_id": 32185,
        "meta_element_set_no": 999,
        "meta_rev_at_epoch": 94889,
        "meta_bstar": 0.0060111,
        "meta_mean_motion_dot": 0.00107989,
        "meta_mean_motion_ddot": 0,
        "tle_line1": "1 32185U 99025CUF 25338.32957998  .00107989  00000+0  60111-2 0  9991",
        "tle_line2": "2 32185  98.9026 183.3363 0164942  42.3617 319.0203 15.02297817948899"
      },
      "geometry": {
        "type": "Point",
        "coordinates": [
          176.3187274590541,
          41.67089002858148
        ]
      }
    },
    {
      "type": "Feature",
      "properties": {
        "norad_id": 32186,
        "name": "FENGYUN 1C DEB",
        "group": "fengyun-1c-debris",
        "lat": 26.634876315706432,
        "lon": -145.51939215680693,
        "alt_km": 892.9684206776665,
        "timestamp": "2025-12-05T04:52:15.577480+00:00",
        "meta_object_name": "FENGYUN 1C DEB",
        "meta_object_id": "1999-025CUG",
        "meta_epoch": "2025-11-27T22:32:39.210144",
        "meta_mean_motion": 13.76456233,
        "meta_eccentricity": 0.0273811,
        "meta_inclination": 99.6093,
        "meta_ra_of_asc_node": 22.268,
        "meta_arg_of_pericenter": 239.107,
        "meta_mean_anomaly": 302.2685,
        "meta_ephemeris_type": 0,
        "meta_classification_type": "U",
        "meta_norad_cat_id": 32186,
        "meta_element_set_no": 999,
        "meta_rev_at_epoch": 62406,
        "meta_bstar": 0.0013119,
        "meta_mean_motion_dot": 1.643e-05,
        "meta_mean_motion_ddot": 0,
        "tle_line1": "1 32186U 99025CUG 25331.93934271  .00001643  00000+0  13119-2 0  9997",
        "tle_line2": "2 32186  99.6093  22.2680 0273811 239.1070 302.2685 13.76456233624066"
      },
      "geometry": {
        "type": "Point",
        "coordinates": [
          -145.51939215680693,
          26.634876315706432
        ]
      }
    },
    {
      "type": "Feature",
      "properties": {
        "norad_id": 32187,
        "name": "FENGYUN 1C DEB",
        "group": "fengyun-1c-debris",
        "lat": -50.60504065096237,
        "lon": 70.25925479872846,
        "alt_km": 1251.2819807072792,
        "timestamp": "2025-12-05T04:52:15.577496+00:00",
        "meta_object_name": "FENGYUN 1C DEB",
        "meta_object_id": "1999-025CUH",
        "meta_epoch": "2025-11-14T01:13:51.155328",
        "meta_mean_motion": 13.50459969,
        "meta_eccentricity": 0.02935721,
        "meta_inclination": 99.509,
        "meta_ra_of_asc_node": 38.2489,
        "meta_arg_of_pericenter": 217.6555,
        "meta_mean_anomaly": 268.1397,
        "meta_ephemeris_type": 0,
        "meta_classification_type": "U",
        "meta_norad_cat_id": 32187,
        "meta_element_set_no": 999,
        "meta_rev_at_epoch": 65871,
        "meta_bstar": 0.0010895496,
        "meta_mean_motion_dot": 8.7e-06,
        "meta_mean_motion_ddot": 0,
        "tle_line1": "1 32187U 99025CUH 25318.05128652  .00000870  00000+0  10895-2 0  9993",
        "tle_line2": "2 32187  99.5090  38.2489 0293572 217.6555 268.1397 13.50459969658712"
      },
      "geometry": {
        "type": "Point",
        "coordinates": [
          70.25925479872846,
          -50.60504065096237
        ]
      }
    },
    {
      "type": "Feature",
      "properties": {
        "norad_id": 32191,
        "name": "FENGYUN 1C DEB",
        "group": "fengyun-1c-debris",
        "lat": -13.516231949205007,
        "lon": -146.74720920260745,
        "alt_km": 747.5178209848345,
        "timestamp": "2025-12-05T04:52:15.577512+00:00",
        "meta_object_name": "FENGYUN 1C DEB",
        "meta_object_id": "1999-025CUM",
        "meta_epoch": "2025-12-04T09:25:35.043744",
        "meta_mean_motion": 14.25105987,
        "meta_eccentricity": 0.0093524,
        "meta_inclination": 98.7083,
        "meta_ra_of_asc_node": 34.5602,
        "meta_arg_of_pericenter": 210.5327,
        "meta_mean_anomaly": 149.0388,
        "meta_ephemeris_type": 0,
        "meta_classification_type": "U",
        "meta_norad_cat_id": 32191,
        "meta_element_set_no": 999,
        "meta_rev_at_epoch": 64382,
        "meta_bstar": 0.0033401,
        "meta_mean_motion_dot": 8.164e-05,
        "meta_mean_motion_ddot": 0,
        "tle_line1": "1 32191U 99025CUM 25338.39276671  .00008164  00000+0  33401-2 0  9994",
        "tle_line2": "2 32191  98.7083  34.5602 0093524 210.5327 149.0388 14.25105987643824"
      },
      "geometry": {
        "type": "Point",
        "coordinates": [
          -146.74720920260745,
          -13.516231949205007
        ]
      }
    },
    {
      "type": "Feature",
      "properties": {
        "norad_id": 32192,
        "name": "FENGYUN 1C DEB",
        "group": "fengyun-1c-debris",
        "lat": 45.126853742353575,
        "lon": -158.112925801657,
        "alt_km": 1047.2488754837432,
        "timestamp": "2025-12-05T04:52:15.577529+00:00",
        "meta_object_name": "FENGYUN 1C DEB",
        "meta_object_id": "1999-025CUN",
        "meta_epoch": "2025-12-04T09:32:10.557888",
        "meta_mean_motion": 13.82503909,
        "meta_eccentricity": 0.0181329,
        "meta_inclination": 98.6531,
        "meta_ra_of_asc_node": 209.9447,
        "meta_arg_of_pericenter": 185.0799,
        "meta_mean_anomaly": 174.8522,
        "meta_ephemeris_type": 0,
        "meta_classification_type": "U",
        "meta_norad_cat_id": 32192,
        "meta_element_set_no": 999,
        "meta_rev_at_epoch": 92597,
        "meta_bstar": 0.00048978,
        "meta_mean_motion_dot": 5.63e-06,
        "meta_mean_motion_ddot": 0,
        "tle_line1": "1 32192U 99025CUN 25338.39734442  .00000563  00000+0  48978-3 0  9991",
        "tle_line2": "2 32192  98.6531 209.9447 0181329 185.0799 174.8522 13.82503909925970"
      },
      "geometry": {
        "type": "Point",
        "coordinates": [
          -158.112925801657,
          45.126853742353575
        ]
      }
    }
  ]
}